GLOBALSTAR M075         
1 37192U 10054E   25083.98402374 -.00000092  00000+0  67850-4 0  9998
2 37192  51.9941  77.9132 0000319  93.8640 295.8347 12.62262633665744
GLOBALSTAR M073         
1 37193U 10054F   25084.49060811 -.00000079  00000+0  14014-3 0  9990
2 37193  52.0089 350.1319 0000722  88.1496  82.5912 12.62269334667260
GLOBALSTAR M083         
1 37739U 11033A   25084.02311789 -.00000047  00000+0  31470-3 0  9996
2 37739  51.9859 300.4006 0000913  81.4039  65.3109 12.62261230636227
GLOBALSTAR M088         
1 37740U 11033B   25084.53646677 -.00000101  00000+0  13465-4 0  9997
2 37740  51.9724 204.3949 0000717 106.1037 335.1316 12.62264605631832
GLOBALSTAR M091         
1 37741U 11033C   25084.72777906 -.00000088  00000+0  87529-4 0  9995
2 37741  51.9985 167.2205 0000675  93.6951  76.4775 12.62266395632903
GLOBALSTAR M085         
1 37742U 11033D   25084.04666593 -.00000080  00000+0  13382-3 0  9997
2 37742  51.9845 120.4062 0000488  91.2911 282.4036 12.62266785633074
GLOBALSTAR M081         
1 37743U 11033E   25084.49761458 -.00000071  00000+0  18465-3 0  9990
2 37743  51.9938 121.7680 0000600 109.0737  34.9882 12.62262120633278
GLOBALSTAR M089         
1 37744U 11033F   25084.37961172 -.00000079  00000+0  13962-3 0  9998
2 37744  51.9922  76.3687 0000315 131.8489  15.8366 12.62267781634100
